NORAD_CAT_ID,OBJECT_NAME,OBJECT_TYPE,EPOCH,MEAN_MOTION,ECCENTRICITY,INCLINATION,RA_OF_ASC_NODE,ARG_OF_PERICENTER,MEAN_ANOMALY,BSTAR,MEAN_MOTION_DOT,MEAN_MOTION_DDOT,TLE_LINE0,TLE_LINE1,TLE_LINE2,SEMIMAJOR_AXIS,PERIOD,APOGEE,PERIGEE,DECAYED
53640.0,STARLINK-4597,PAYLOAD,2023-08-18 01:46:45,15.08846545,0.0001304,53.216,99.5219,91.5506,268.5635,0.00013865,1.92e-05,0.0,0 STARLINK-4597,1 53640U 22104BE  23230.07413917  .00001920  00000-0  13865-3 0  9997,2 53640  53.2160  99.5219 0001304  91.5506 268.5635 15.08846545 54118,6917.86,95.437,540.627,538.823,0.0
53640.0,STARLINK-4597,PAYLOAD,2023-08-18 16:05:15,15.08834442,0.0001208,53.2158,96.8453,91.8282,268.2848,-6.2542e-05,-1.283e-05,0.0,0 STARLINK-4597,1 53640U 22104BE  23230.67031308 -.00001283  00000-0 -62542-4 0  9994,2 53640  53.2158  96.8453 0001208  91.8282 268.2848 15.08834442 54208,6917.897,95.438,540.598,538.927,0.0
53640.0,STARLINK-4597,PAYLOAD,2023-08-19 23:52:57,15.08843081,0.0001025,53.2152,90.8971,89.724,270.387,4.1015e-05,3.65e-06,0.0,0 STARLINK-4597,1 53640U 22104BE  23231.99510707  .00000365  00000-0  41015-4 0  9995,2 53640  53.2152  90.8971 0001025  89.7240 270.3870 15.08843081 54408,6917.871,95.437,540.445,539.027,0.0
53640.0,STARLINK-4597,PAYLOAD,2023-08-21 07:40:40,15.08835224,0.0001273,53.2152,84.9503,85.4615,274.6522,7.498e-05,9.05e-06,0.0,0 STARLINK-4597,1 53640U 22104BE  23233.31991386  .00000905  00000-0  74980-4 0  9996,2 53640  53.2152  84.9503 0001273  85.4615 274.6522 15.08835224 54600,6917.895,95.438,540.641,538.879,0.0
53640.0,STARLINK-4597,PAYLOAD,2023-08-24 13:34:34,15.08835206,0.000136,53.2175,70.379,120.1456,239.9671,8.5979e-05,1.081e-05,0.0,0 STARLINK-4597,1 53640U 22104BE  23236.56567403  .00001081  00000-0  85979-4 0  9991,2 53640  53.2175  70.3790 0001360 120.1456 239.9671 15.08835206 55092,6917.895,95.438,540.701,538.819,0.0
53640.0,STARLINK-4597,PAYLOAD,2023-08-25 18:11:30,15.08839307,0.0001027,53.217,65.0266,85.425,274.686,3.1052e-05,2.06e-06,0.0,0 STARLINK-4597,1 53640U 22104BE  23237.75799653  .00000206  00000-0  31052-4 0  9998,2 53640  53.2170  65.0266 0001027  85.4250 274.6860 15.08839307 55273,6917.883,95.438,540.458,539.037,0.0
53640.0,STARLINK-4597,PAYLOAD,2023-08-25 21:22:17,15.08840711,0.0001107,53.2175,64.4314,78.4564,281.6552,2.4505e-05,1.02e-06,0.0,0 STARLINK-4597,1 53640U 22104BE  23237.89047597  .00000102  00000-0  24505-4 0  9996,2 53640  53.2175  64.4314 0001107  78.4564 281.6552 15.08840711 56317,6917.878,95.438,540.509,538.977,0.0
53640.0,STARLINK-4597,PAYLOAD,2023-08-26 13:16:08,15.08835949,0.0001049,53.2168,61.4583,89.0627,271.0486,6.5186e-05,7.5e-06,0.0,0 STARLINK-4597,1 53640U 22104BE  23238.55287901  .00000750  00000-0  65186-4 0  9994,2 53640  53.2168  61.4583 0001049  89.0627 271.0486 15.08835949 56414,6917.893,95.438,540.483,539.032,0.0
53640.0,STARLINK-4597,PAYLOAD,2023-08-26 21:13:03,15.08844315,0.0001072,53.217,59.9711,96.0722,264.0393,0.00013099,1.798e-05,0.0,0 STARLINK-4597,1 53640U 22104BE  23238.88407217  .00001798  00000-0  13099-3 0  9992,2 53640  53.2170  59.9711 0001072  96.0722 264.0393 15.08844315 56463,6917.867,95.437,540.474,538.991,0.0
53640.0,STARLINK-4597,PAYLOAD,2023-08-27 17:53:05,15.08839565,0.00011,53.2171,56.1053,101.0482,259.0634,7.6716e-05,9.33e-06,0.0,0 STARLINK-4597,1 53640U 22104BE  23239.74519715  .00000933  00000-0  76716-4 0  9991,2 53640  53.2171  56.1053 0001100 101.0482 259.0634 15.08839565 55578,6917.882,95.438,540.508,538.986,0.0
53640.0,STARLINK-4597,PAYLOAD,2023-08-27 21:03:51,15.08839653,0.0001159,53.2186,55.5116,81.4056,278.7068,0.00011117,1.482e-05,0.0,0 STARLINK-4597,1 53640U 22104BE  23239.87767715  .00001482  00000-0  11117-3 0  9993,2 53640  53.2186  55.5116 0001159  81.4056 278.7068 15.08839653 56612,6917.881,95.438,540.548,538.945,0.0
53640.0,STARLINK-4597,PAYLOAD,2023-08-28 17:43:52,15.08841566,0.0001092,53.2179,51.6451,84.1061,276.0055,2.3235e-05,8.2e-07,0.0,0 STARLINK-4597,1 53640U 22104BE  23240.73879904  .00000082  00000-0  23235-4 0  9994,2 53640  53.2179  51.6451 0001092  84.1061 276.0055 15.08841566 56742,6917.876,95.437,540.496,538.985,0.0
53640.0,STARLINK-4597,PAYLOAD,2023-08-29 04:51:33,15.08844027,0.000108,53.2176,49.5638,80.8977,279.2138,6.8412e-05,8.01e-06,0.0,0 STARLINK-4597,1 53640U 22104BE  23241.20247594  .00000801  00000-0  68412-4 0  9996,2 53640  53.2176  49.5638 0001080  80.8977 279.2138 15.08844027 55794,6917.868,95.437,540.48,538.986,0.0
53640.0,STARLINK-4597,PAYLOAD,2023-08-29 17:34:39,15.08842148,0.0001181,53.2179,47.1854,80.6363,279.4763,6.7151e-05,7.81e-06,0.0,0 STARLINK-4597,1 53640U 22104BE  23241.73239752  .00000781  00000-0  67151-4 0  9997,2 53640  53.2179  47.1854 0001181  80.6363 279.4763 15.08842148 56890,6917.874,95.437,540.556,538.922,0.0
53640.0,STARLINK-4597,PAYLOAD,2023-08-30 11:03:53,15.08836971,0.0001247,53.2179,43.9141,85.4664,274.647,0.00011228,1.499e-05,0.0,0 STARLINK-4597,1 53640U 22104BE  23242.46103929  .00001499  00000-0  11228-3 0  9994,2 53640  53.2179  43.9141 0001247  85.4664 274.6470 15.08836971 55981,6917.89,95.438,540.617,538.892,0.0
53640.0,STARLINK-4597,PAYLOAD,2023-08-30 17:25:26,15.08838933,0.0001222,53.2179,42.7253,84.5107,275.6024,0.00015287,2.146e-05,0.0,0 STARLINK-4597,1 53640U 22104BE  23242.72599736  .00002146  00000-0  15287-3 0  9997,2 53640  53.2179  42.7253 0001222  84.5107 275.6024 15.08838933 57042,6917.884,95.438,540.594,538.903,0.0
53640.0,STARLINK-4597,PAYLOAD,2023-08-31 10:54:40,15.08838287,0.0001151,53.2172,39.4546,83.6857,276.4266,4.2075e-05,3.82e-06,0.0,0 STARLINK-4597,1 53640U 22104BE  23243.45463961  .00000382  00000-0  42075-4 0  9994,2 53640  53.2172  39.4546 0001151  83.6857 276.4266 15.08838287 57157,6917.886,95.438,540.547,538.954,0.0
53640.0,STARLINK-4597,PAYLOAD,2023-09-01 02:48:32,15.08841092,0.0001062,53.2178,36.4813,84.1953,275.916,1.5518e-05,-4.1e-07,0.0,0 STARLINK-4597,1 53640U 22104BE  23244.11703858 -.00000041  00000-0  15518-4 0  9995,2 53640  53.2178  36.4813 0001062  84.1953 275.9160 15.08841092 56234,6917.877,95.437,540.477,539.007,0.0
53640.0,STARLINK-4597,PAYLOAD,2023-09-01 09:10:06,15.08739802,0.0005914,53.238,35.3075,300.3453,59.6954,0.0014521,0.00022841,0.0,0 STARLINK-4597,1 53640U 22104BE  23244.38201923  .00022841  00000-0  14521-2 0  9992,2 53640  53.2380  35.3075 0005914 300.3453  59.6954 15.08739802 56272,6918.187,95.444,544.143,535.96,0.0
53640.0,STARLINK-4597,PAYLOAD,2023-09-01 22:00:00,15.08814083,0.0001186,53.2171,32.8905,73.1525,312.85,0.00079581,0.00012391,0.0,0 STARLINK-4597,1 53640U 22104BE  23244.91667824  .00012391  00000-0  79581-3 0  9994,2 53640  53.2171  32.8905 0001186  73.1525 312.8500 15.08814083 56351,6917.96,95.439,540.645,539.004,0.0
53640.0,STARLINK-4597,PAYLOAD,2023-09-02 02:39:17,15.0884899,0.0001205,53.2102,32.0184,99.2231,260.8897,0.00056428,8.706e-05,0.0,0 STARLINK-4597,1 53640U 22104BE  23245.11061884  .00008706  00000-0  56428-3 0  9991,2 53640  53.2102  32.0184 0001205  99.2231 260.8897 15.08848990 56389,6917.853,95.437,540.552,538.884,0.0
53640.0,STARLINK-4597,PAYLOAD,2023-09-02 10:36:14,15.08836134,0.0001117,53.2112,30.5303,359.875,0.2242,0.00016679,2.367e-05,0.0,0 STARLINK-4597,1 53640U 22104BE  23245.44183974  .00002367  00000-0  16679-3 0  9993,2 53640  53.2112  30.5303 0001117 359.8750   0.2242 15.08836134 56432,6917.892,95.438,540.53,538.984,0.0
53640.0,STARLINK-4597,PAYLOAD,2023-09-02 16:57:48,15.08823096,9.22e-05,53.218,29.3436,58.2115,301.8967,0.00011941,1.612e-05,0.0,0 STARLINK-4597,1 53640U 22104BE  23245.70681093  .00001612  00000-0  11941-3 0  9996,2 53640  53.2180  29.3436 0000922  58.2115 301.8967 15.08823096 56479,6917.932,95.439,540.435,539.159,0.0
53640.0,STARLINK-4597,PAYLOAD,2023-09-03 08:51:39,15.0884139,8.79e-05,53.2181,26.3693,78.3458,281.7632,3.2908e-05,2.36e-06,0.0,0 STARLINK-4597,1 53640U 22104BE  23246.36920232  .00000236  00000-0  32908-4 0  9998,2 53640  53.2181  26.3693 0000879  78.3458 281.7632 15.08841390 56579,6917.876,95.437,540.349,539.133,0.0
53640.0,STARLINK-4597,PAYLOAD,2023-09-04 02:20:51,15.08891034,6.83e-05,53.2182,23.0979,96.0205,264.0865,-0.00060887,-9.978e-05,0.0,0 STARLINK-4597,1 53640U 22104BE  23247.09782086 -.00009978  00000-0 -60887-3 0  9992,2 53640  53.2182  23.0979 0000683  96.0205 264.0865 15.08891034 56685,6917.724,95.434,540.062,539.117,0.0
53640.0,STARLINK-4597,PAYLOAD,2023-09-04 10:17:48,15.08843535,0.0001057,53.2188,21.6131,81.7307,278.3805,7.1914e-05,8.57e-06,0.0,0 STARLINK-4597,1 53640U 22104BE  23247.42903875  .00000857  00000-0  71914-4 0  9999,2 53640  53.2188  21.6131 0001057  81.7307 278.3805 15.08843535 56736,6917.87,95.437,540.466,539.003,0.0
53640.0,STARLINK-4597,PAYLOAD,2023-09-04 21:25:31,15.08836344,0.0001636,53.2178,19.5295,77.5175,282.6,4.8128e-06,-2.11e-06,0.0,0 STARLINK-4597,1 53640U 22104BE  23247.89272981 -.00000211  00000-0  48128-5 0  9994,2 53640  53.2178  19.5295 0001636  77.5175 282.6000 15.08836344 56804,6917.892,95.438,540.888,538.625,0.0
53640.0,STARLINK-4597,PAYLOAD,2023-09-05 08:33:13,15.08836004,0.0001376,53.218,17.4472,84.2945,275.8204,1.6187e-05,-3e-07,0.0,0 STARLINK-4597,1 53640U 22104BE  23248.35641043 -.00000030  00000-0  16187-4 0  9993,2 53640  53.2180  17.4472 0001376  84.2945 275.8204 15.08836004 57895,6917.893,95.438,540.71,538.806,0.0
53640.0,STARLINK-4597,PAYLOAD,2023-09-06 02:02:27,15.08840655,0.0001341,53.2188,14.1782,81.7625,278.3519,0.00016831,2.392e-05,0.0,0 STARLINK-4597,1 53640U 22104BE  23249.08504191  .00002392  00000-0  16831-3 0  9993,2 53640  53.2188  14.1782 0001341  81.7625 278.3519 15.08840655 56983,6917.878,95.438,540.671,538.816,0.0
53640.0,STARLINK-4597,PAYLOAD,2023-09-06 08:24:00,15.08840298,0.0001445,53.2181,12.9888,81.6395,278.4761,0.00014891,2.083e-05,0.0,0 STARLINK-4597,1 53640U 22104BE  23249.35000405  .00002083  00000-0  14891-3 0  9993,2 53640  53.2181  12.9888 0001445  81.6395 278.4761 15.08840298 58049,6917.879,95.438,540.744,538.745,0.0
